NORAD_CAT_ID,OBJECT_NAME,OBJECT_TYPE,EPOCH,MEAN_MOTION,ECCENTRICITY,INCLINATION,RA_OF_ASC_NODE,ARG_OF_PERICENTER,MEAN_ANOMALY,BSTAR,MEAN_MOTION_DOT,MEAN_MOTION_DDOT,TLE_LINE0,TLE_LINE1,TLE_LINE2,SEMIMAJOR_AXIS,PERIOD,APOGEE,PERIGEE,DECAYED
53832.0,STARLINK-4747,PAYLOAD,2023-01-26 08:17:26,15.08852435,0.0001277,53.219,14.0879,87.3125,272.8013,0.00022497,3.296e-05,0.0,0 STARLINK-4747,1 53832U 22114Q   23026.34544646  .00003296  00000-0  22497-3 0  9997,2 53832  53.2190  14.0879 0001277  87.3125 272.8013 15.08852435 20988,6917.842,95.437,540.591,538.8240000000001,0.0
53832.0,STARLINK-4747,PAYLOAD,2023-01-26 17:49:45,15.08841719,0.0001386999999999,53.2177,12.3039,91.6079,268.5072,9.2458e-05,1.184e-05,0.0,0 STARLINK-4747,1 53832U 22114Q   23026.74289121  .00001184  00000-0  92458-4 0  9994,2 53832  53.2177  12.3039 0001387  91.6079 268.5072 15.08841719 20508,6917.875,95.437,540.7,538.781,0.0
53832.0,STARLINK-4747,PAYLOAD,2023-01-27 06:32:50,15.08848133,0.0001165,53.2187,9.9257,100.783,259.3293,0.00015585,2.194e-05,0.0,0 STARLINK-4747,1 53832U 22114Q   23027.27280762  .00002194  00000-0  15585-3 0  9992,2 53832  53.2187   9.9257 0001165 100.7830 259.3293 15.08848133 21123,6917.856,95.437,540.526,538.915,0.0
53832.0,STARLINK-4747,PAYLOAD,2023-01-27 17:40:32,15.08844403,0.0001207,53.2182,7.8429,104.8013,255.3113,3.4035e-05,2.54e-06,0.0,0 STARLINK-4747,1 53832U 22114Q   23027.73648912  .00000254  00000-0  34035-4 0  9995,2 53832  53.2182   7.8429 0001207 104.8013 255.3113 15.08844403 21191,6917.866999999999,95.437,540.567,538.8969999999999,0.0
53832.0,STARLINK-4747,PAYLOAD,2023-01-28 04:48:15,15.08834774,0.000126,53.2179,5.7633,86.34100000000001,273.7726,-7.703200000000001e-06,-4.1e-06,0.0,0 STARLINK-4747,1 53832U 22114Q   23028.20017695 -.00000410  00000-0 -77032-5 0  9997,2 53832  53.2179   5.7633 0001260  86.3410 273.7726 15.08834774 20727,6917.896,95.438,540.633,538.89,0.0
53832.0,STARLINK-4747,PAYLOAD,2023-01-28 07:59:01,15.08839636,0.0001134,53.2187,5.1665,114.3797,245.7314,6.0412e-05,6.74e-06,0.0,0 STARLINK-4747,1 53832U 22114Q   23028.33265312  .00000674  00000-0  60412-4 0  9995,2 53832  53.2187   5.1665 0001134 114.3797 245.7314 15.08839636 21281,6917.882,95.438,540.531,538.962,0.0
53832.0,STARLINK-4747,PAYLOAD,2023-01-28 17:31:19,15.0884479,0.000116,53.2187,3.3844,80.8632,279.2491,5.6067e-05,6.05e-06,0.0,0 STARLINK-4747,1 53832U 22114Q   23028.73009175  .00000605  00000-0  56067-4 0  9997,2 53832  53.2187   3.3844 0001160  80.8632 279.2491 15.08844790 21346,6917.866,95.437,540.533,538.928,0.0
53832.0,STARLINK-4747,PAYLOAD,2023-01-28 22:17:29,15.08842911,0.0001126,53.2186,2.4918,94.3111,265.801,0.00017349,2.475e-05,0.0,0 STARLINK-4747,1 53832U 22114Q   23028.92881303  .00002475  00000-0  17349-3 0  9995,2 53832  53.2186   2.4918 0001126  94.3111 265.8010 15.08842911 20835,6917.871,95.437,540.515,538.958,0.0
53832.0,STARLINK-4747,PAYLOAD,2023-01-29 07:49:47,15.08856362,0.0001183,53.2183,0.7075,92.884,267.2287,0.00039012,5.929e-05,0.0,0 STARLINK-4747,1 53832U 22114Q   23029.32624758  .00005929  00000-0  39012-3 0  9997,2 53832  53.2183   0.7075 0001183  92.8840 267.2287 15.08856362 20895,6917.83,95.437,540.514,538.877,0.0
53832.0,STARLINK-4747,PAYLOAD,2023-01-29 22:08:16,15.08842864,0.0001253,53.2193,358.0318,89.8705,270.243,0.00015483,2.177e-05,0.0,0 STARLINK-4747,1 53832U 22114Q   23029.92241361  .00002177  00000-0  15483-3 0  9996,2 53832  53.2193 358.0318 0001253  89.8705 270.2430 15.08842864 21526,6917.872,95.437,540.603,538.87,0.0
53832.0,STARLINK-4747,PAYLOAD,2023-01-30 07:40:35,15.08844659,0.0001219,53.2187,356.2476,80.0749,280.0381,0.00017012,2.421e-05,0.0,0 STARLINK-4747,1 53832U 22114Q   23030.31985339  .00002421  00000-0  17012-3 0  9993,2 53832  53.2187 356.2476 0001219  80.0749 280.0381 15.08844659 21042,6917.866,95.437,540.574,538.888,0.0
53832.0,STARLINK-4747,PAYLOAD,2023-01-30 21:59:03,15.08839802,0.0001277,53.2188,353.5717,79.8743,280.2393,9.5203e-05,1.228e-05,0.0,0 STARLINK-4747,1 53832U 22114Q   23030.91601580  .00001228  00000-0  95203-4 0  9995,2 53832  53.2188 353.5717 0001277  79.8743 280.2393 15.08839802 21673,6917.881,95.438,540.629,538.863,0.0
53832.0,STARLINK-4747,PAYLOAD,2023-01-31 07:31:22,15.08854395,0.00013,53.2189,351.7875,78.5858,281.528,0.00057945,8.95e-05,0.0,0 STARLINK-4747,1 53832U 22114Q   23031.31345189  .00008950  00000-0  57945-3 0  9999,2 53832  53.2189 351.7875 0001300  78.5858 281.5280 15.08854395 21739,6917.836,95.437,540.601,538.802,0.0
53832.0,STARLINK-4747,PAYLOAD,2023-01-31 21:49:50,15.08843601,0.0001302,53.2189,349.111,84.413,275.7011,9.7361e-05,1.262e-05,0.0,0 STARLINK-4747,1 53832U 22114Q   23031.90961173  .00001262  00000-0  97361-4 0  9997,2 53832  53.2189 349.1110 0001302  84.4130 275.7011 15.08843601 21828,6917.869,95.437,540.635,538.834,0.0
53832.0,STARLINK-4747,PAYLOAD,2023-02-01 05:46:45,15.08856826,0.0001467,53.2188,347.6245,88.1303,271.9857,0.00036421,5.516e-05,0.0,0 STARLINK-4747,1 53832U 22114Q   23032.24080618  .00005516  00000-0  36421-3 0  9996,2 53832  53.2188 347.6245 0001467  88.1303 271.9857 15.08856826 21339,6917.829,95.436,540.709,538.679,0.0
53832.0,STARLINK-4747,PAYLOAD,2023-02-02 02:26:47,15.08833621,0.0001489,53.2189,343.7595,92.2857,267.8306,-0.00012567,-2.287e-05,0.0,0 STARLINK-4747,1 53832U 22114Q   23033.10193404 -.00002287  00000-0 -12567-3 0  9999,2 53832  53.2189 343.7595 0001489  92.2857 267.8306 15.08833621 21464,6917.9,95.438,540.795,538.735,0.0
53832.0,STARLINK-4747,PAYLOAD,2023-02-02 05:37:33,15.08834691,0.0001412,53.2187,343.1649,91.7833,268.3321,-4.3447e-05,-9.79e-06,0.0,0 STARLINK-4747,1 53832U 22114Q   23033.23441492 -.00000979  00000-0 -43447-4 0  9994,2 53832  53.2187 343.1649 0001412  91.7833 268.3321 15.08834691 22024,6917.897,95.438,540.738,538.785,0.0
53832.0,STARLINK-4747,PAYLOAD,2023-02-03 05:28:20,15.08861454,0.0001251,53.2183,338.7034,81.8977,278.2157,0.00096056,0.00015041,0.0,0 STARLINK-4747,1 53832U 22114Q   23034.22801073  .00015041  00000-0  96056-3 0  9996,2 53832  53.2183 338.7034 0001251  81.8977 278.2157 15.08861454 21638,6917.815,95.436,540.545,538.814,0.0
53832.0,STARLINK-4747,PAYLOAD,2023-02-03 19:46:48,15.08847188,0.0001279,53.2189,336.0293,79.0011,281.1125,0.00027916,4.159e-05,0.0,0 STARLINK-4747,1 53832U 22114Q   23034.82417285  .00004159  00000-0  27916-3 0  9997,2 53832  53.2189 336.0293 0001279  79.0011 281.1125 15.08847188 21726,6917.858,95.437,540.608,538.839,0.0
53832.0,STARLINK-4747,PAYLOAD,2023-02-04 05:19:07,15.08856725,0.0001157,53.2191,334.2452,81.7111,278.4013,0.0007773,0.0001211,0.0,0 STARLINK-4747,1 53832U 22114Q   23035.22161032  .00012110  00000-0  77730-3 0  9993,2 53832  53.2191 334.2452 0001157  81.7111 278.4013 15.08856725 22321,6917.829,95.436,540.495,538.894,0.0
53832.0,STARLINK-4747,PAYLOAD,2023-02-05 05:09:54,15.08845004,0.0001321,53.2189,329.7836,82.5813,277.5329,0.00068488,0.0001063,0.0,0 STARLINK-4747,1 53832U 22114Q   23036.21521720  .00010630  00000-0  68488-3 0  9992,2 53832  53.2189 329.7836 0001321  82.5813 277.5329 15.08845004 21938,6917.865,95.437,540.644,538.816,0.0
53832.0,STARLINK-4747,PAYLOAD,2023-02-05 22:39:09,15.0884634,0.0001473,53.2191,326.512,89.1541,270.962,0.00047273,7.245e-05,0.0,0 STARLINK-4747,1 53832U 22114Q   23036.94385748  .00007245  00000-0  47273-3 0  9997,2 53832  53.2191 326.5120 0001473  89.1541 270.9620 15.08846340 22588,6917.861,95.437,540.745,538.707,0.0
53832.0,STARLINK-4747,PAYLOAD,2023-02-06 05:00:41,15.08856556,0.0001372,53.2196,325.3221,88.5908,271.5241,0.00064913,0.00010063,0.0,0 STARLINK-4747,1 53832U 22114Q   23037.20881390  .00010063  00000-0  64913-3 0  9993,2 53832  53.2196 325.3221 0001372  88.5908 271.5241 15.08856556 22081,6917.83,95.437,540.644,538.746,0.0
53832.0,STARLINK-4747,PAYLOAD,2023-02-06 19:19:09,15.0885308,0.00013,53.2195,322.6462,82.0191,278.0949,0.00042232,6.442e-05,0.0,0 STARLINK-4747,1 53832U 22114Q   23037.80497311  .00006442  00000-0  42232-3 0  9991,2 53832  53.2195 322.6462 0001300  82.0191 278.0949 15.08853080 22717,6917.84,95.437,540.605,538.806,0.0
53832.0,STARLINK-4747,PAYLOAD,2023-02-06 22:29:55,15.08853647,0.0001133,53.2192,322.0519,76.0797,284.0321,0.00046039,7.05e-05,0.0,0 STARLINK-4747,1 53832U 22114Q   23037.93745222  .00007050  00000-0  46039-3 0  9997,2 53832  53.2192 322.0519 0001133  76.0797 284.0321 15.08853647 22192,6917.839,95.437,540.487,538.92,0.0
53832.0,STARLINK-4747,PAYLOAD,2023-02-07 03:16:04,15.08865778,0.000134,53.2199,321.1611,72.21,287.9038,0.00080864,0.00012614,0.0,0 STARLINK-4747,1 53832U 22114Q   23038.13616845  .00012614  00000-0  80864-3 0  9994,2 53832  53.2199 321.1611 0001340  72.2100 287.9038 15.08865778 22227,6917.802,95.436,540.594,538.74,0.0
53832.0,STARLINK-4747,PAYLOAD,2023-02-07 22:20:42,15.08847793,0.0001181,53.2193,317.5931,78.2546,281.8579,0.00073676,0.00011459,0.0,0 STARLINK-4747,1 53832U 22114Q   23038.93105156  .00011459  00000-0  73676-3 0  9999,2 53832  53.2193 317.5931 0001181  78.2546 281.8579 15.08847793 22341,6917.857,95.437,540.539,538.905,0.0
53832.0,STARLINK-4747,PAYLOAD,2023-02-08 04:42:14,15.08872606,0.0001128,53.2189,316.404,82.4621,277.65,0.0018592,0.00029452,0.0,0 STARLINK-4747,1 53832U 22114Q   23039.19600681  .00029452  00000-0  18592-2 0  9998,2 53832  53.2189 316.4040 0001128  82.4621 277.6500 15.08872606 22389,6917.781,95.435,540.426,538.865,0.0
53832.0,STARLINK-4747,PAYLOAD,2023-02-08 22:11:30,15.08839344,0.000103,53.2175,313.1285,125.7533,234.3555,0.0012318,0.0001937,0.0,0 STARLINK-4747,1 53832U 22114Q   23039.92465429  .00019370  00000-0  12318-2 0  9996,2 53832  53.2175 313.1285 0001030 125.7533 234.3555 15.08839344 23039,6917.882,95.438,540.46,539.035,0.0
53832.0,STARLINK-4747,PAYLOAD,2023-02-09 04:33:02,15.08855289,6.6e-05,53.2188,311.9446,89.7106,270.3961,0.002087,0.00033097,0.0,0 STARLINK-4747,1 53832U 22114Q   23040.18961446  .00033097  00000-0  20870-2 0  9990,2 53832  53.2188 311.9446 0000660  89.7106 270.3961 15.08855289 22532,6917.834,95.437,540.155,539.242,0.0
